SPAWAR-CAL-R            
1 43776U 18099U   26067.65115975  .00003570  00000+0  25336-3 0  9990
2 43776  97.4524 111.5817 0019701 348.9052  11.1737 15.05212097396878
STARLINK-4586           
1 53636U 22104BA  26068.66270472  .00023451  00000+0  14847-2 0  9998
2 53636  53.2164 224.0637 0000879  62.9427 297.1655 15.08888095196221
